ONEWEB-0144             
1 47290U 20100AJ  24270.86755085  .00000502  00000+0  13591-2 0  9991
2 47290  87.8857 115.7878 0002022  78.6717 281.4639 13.12443385182150
ONEWEB-0145             
1 47291U 20100AK  24270.83834413 -.00000334  00000+0 -96505-3 0  9994
2 47291  87.8855 115.8184 0001825  81.4568 278.6767 13.12443510182347
ONEWEB-0146             
1 47292U 20100AL  24270.83508451 -.00000334  00000+0 -96268-3 0  9991
2 47292  87.8856 115.8031 0001364  94.5420 265.5865 13.12444354182251
ONEWEB-0147             
1 47293U 20100AM  24270.95351953  .00000431  00000+0  11613-2 0  9994
2 47293  87.8857 115.7697 0001980  88.5070 271.6285 13.12441039182169
ONEWEB-0115             
1 48042U 21025A   24270.93878921  .00000382  00000+0  10115-2 0  9992
2 48042  87.8848  85.2288 0001669  94.0309 266.1011 13.13467356171121
ONEWEB-0152             
1 48043U 21025B   24270.49442145  .00000174  00000+0  44093-3 0  9991
2 48043  87.8855  85.3194 0001672  94.4929 265.6391 13.13469713171026
ONEWEB-0153             
1 48044U 21025C   24270.92926821  .00000258  00000+0  67217-3 0  9994
2 48044  87.8851  85.2228 0001754  89.2927 270.8403 13.13470431171077
ONEWEB-0154             
1 48045U 21025D   24270.92610368  .00000191  00000+0  48707-3 0  9990
2 48045  87.8848  85.2315 0001711  92.6294 267.5031 13.13471040171032
